OSCAR 7 (AO-7)          
1 07530U 74089B   19078.43216767 -.00000041  00000-0  26639-4 0  9990
2 07530 101.7331  47.0696 0012175 161.6990 350.4471 12.53637273 28848
UOSAT 2 (UO-11)         
1 14781U 84021B   19078.54991749  .00000059  00000-0  13368-4 0  9998
2 14781  97.6207 107.5327 0007014 256.4538 103.5895 14.83070238885259
LUSAT (LO-19)           
1 20442U 90005G   19078.26522789 -.00000013  00000-0  11660-4 0  9995
2 20442  98.6402  20.4623 0012809  61.5782 298.6691 14.32919660523281
ITAMSAT (IO-26)         
1 22826U 93061D   19078.42599062  .00000002  00000-0  18788-4 0  9999
2 22826  98.8912  65.0133 0007884 252.0992 107.9330 14.30386710328855
RADIO ROSTO (RS-15)     
1 23439U 94085A   19078.54280741 -.00000037  00000-0  16230-3 0  9999
2 23439  64.8140 263.5255 0148347 130.6961 324.6124 11.27568320997616
JAS-2 (FO-29)           
1 24278U 96046B   19078.59955835  .00000001  00000-0  33783-4 0  9991
2 24278  98.5232 244.4291 0351311 116.2310 247.5386 13.53089856115233
TECHSAT 1B (GO-32)      
1 25397U 98043D   19078.46499653 -.00000022  00000-0  93811-5 0  9993
2 25397  98.6808  19.7561 0000734   4.1147 356.0038 14.23661896 74672
ISS (ZARYA)             
1 25544U 98067A   19079.27885771  .00002089  00000-0  40546-4 0  9993
2 25544  51.6415  83.2211 0003848 120.3172   0.4094 15.52832029161440
PCSAT (NO-44)           
1 26931U 01043C   19078.47200639 -.00000052  00000-0  11930-4 0  9991
2 26931  67.0500 239.0680 0005431 275.0004  85.0477 14.30535508911927
SAUDISAT 1C (SO-50)     
1 27607U 02058C   19078.11776462 -.00000008  00000-0  19751-4 0  9992
2 27607  64.5558 329.5690 0082341 273.9669  85.2024 14.75527820873528
CUTE-1 (CO-55)          
1 27844U 03031E   19078.47331210  .00000052  00000-0  43158-4 0  9990
2 27844  98.6869  88.0395 0008765 298.3243  61.7050 14.22165357815282
CUBESAT XI-IV (CO-57)   
1 27848U 03031J   19078.50991496  .00000036  00000-0  36446-4 0  9990
2 27848  98.6948  88.5546 0008784 310.6345  49.4068 14.21762231815150
MOZHAYETS 4 (RS-22)     
1 27939U 03042A   19078.84098301  .00000130  00000-0  31941-4 0  9993
2 27939  98.0224 216.5079 0012819   2.1142 358.0112 14.66761778827222
CUBESAT XI-V            
1 28895U 05043F   19078.38034431  .00000118  00000-0  31583-4 0  9999
2 28895  97.9434 224.3190 0015437 280.5010  79.4453 14.63639329714120
CUTE-1.7+APD II (CO-65) 
1 32785U 08021C   19078.45045208  .00000207  00000-0  28016-4 0  9999
2 32785  97.5492  82.4748 0012514 199.1214 160.9535 14.88264509590040
DELFI-C3 (DO-64)        
1 32789U 08021G   19078.57572979  .00001088  00000-0  77179-4 0  9998
2 32789  97.4759 130.9482 0013845  79.8149 280.4639 15.06724496593146
SEEDS II (CO-66)        
1 32791U 08021J   19078.48758834  .00000319  00000-0  37791-4 0  9999
2 32791  97.5304  88.3770 0013477 174.9889 185.1467 14.90754889590442
YUBILEINY (RS-30)       
1 32953U 08025A   19078.69763037  .00000020  00000-0  75656-4 0  9998
2 32953  82.5058 201.3354 0018358 330.8369  29.1685 12.43088138491000
KKS-1 (KISEKI)          
1 33499U 09002H   19078.59583264  .00000103  00000-0  23244-4 0  9999
2 33499  98.3549 274.3647 0010135 131.5384 228.6695 14.75415004545368
SWISSCUBE               
1 35932U 09051B   19078.69520695  .00000110  00000-0  35880-4 0  9994
2 35932  98.5764 242.0550 0008801  86.8382 273.3822 14.56253904503535
BEESAT-1                
1 35933U 09051C   19078.42904363  .00000098  00000-0  33101-4 0  9993
2 35933  98.5797 243.4932 0007033  98.9208 261.2785 14.56346898503605
ITUPSAT1                
1 35935U 09051E   19078.43423587  .00000078  00000-0  29079-4 0  9997
2 35935  98.5909 243.7423 0009338  95.8696 264.3565 14.55511040503362
XIWANG-1 (HOPE-1)       
1 36122U 09072B   19078.75810111 -.00000021  00000-0  54233-4 0  9996
2 36122 100.0745  85.4149 0007326 189.4035 170.6941 13.16348743444912
JUGNU                   
1 37839U 11058B   19078.63120921  .00000337  00000-0  37974-4 0  9991
2 37839  19.9603 166.9747 0019112  43.4602 102.2855 14.12644645384255
SRMSAT                  
1 37841U 11058D   19078.60917877  .00000305  00000-0  22440-4 0  9992
2 37841  19.9712 222.0014 0011767 276.7282 172.1076 14.10626769383720
M-CUBED & EXP-1 PRIME   
1 37855U 11061F   19078.40548575  .00000864  00000-0  51443-4 0  9999
2 37855 101.7271 287.0896 0174310 347.3556  12.3311 15.05200956402570
STRAND-1                
1 39090U 13009E   19078.51927726  .00000037  00000-0  28092-4 0  9993
2 39090  98.4976 285.9561 0008809 193.0289 167.0670 14.35074327317317
SOMP                    
1 39134U 13015E   19078.63210351  .00001244  00000-0  66786-4 0  9994
2 39134  64.8636 315.3989 0022081 316.7192  43.2200 15.19907430326376
BEESAT-3                
1 39135U 13015F   19078.52566401  .00000767  00000-0  48131-4 0  9996
2 39135  64.8694 332.7874 0009917 297.2515  62.7600 15.17266545326410
BEESAT-2                
1 39136U 13015G   19078.52898892  .00000836  00000-0  52382-4 0  9999
2 39136  64.8711 336.3202 0011442 294.7845  65.2090 15.16710503325956
ZACUBE-1 (TSHEPISOSAT)  
1 39417U 13066B   19078.56750044  .00000218  00000-0  33912-4 0  9999
2 39417  97.5685  97.1635 0058227 334.1357  25.6948 14.81070269287556
GOMX-1                  
1 39430U 13066Q   19078.83551691  .00000135  00000-0  33474-4 0  9992
2 39430  97.7347  41.4337 0151211 180.2115 179.9052 14.59207930283353
CUBEBUG-2 (LO-74)       
1 39440U 13066AA  19077.95009478  .00000255  00000-0  42367-4 0  9990
2 39440  97.6015  81.8101 0080940  24.0658 336.4301 14.75807833286445
FUNCUBE-1 (AO-73)       
1 39444U 13066AE  19078.48301818  .00000273  00000-0  40053-4 0  9996
2 39444  97.5674  98.9366 0057199 328.6269  31.1537 14.81879417286424
UWE-3                   
1 39446U 13066AG  19078.44971003  .00000234  00000-0  37803-4 0  9999
2 39446  97.5838  89.1809 0070000 359.1132   0.9944 14.78343188285192
SPROUT                  
1 39770U 14029E   19078.60424442  .00000770  00000-0  91579-4 0  9992
2 39770  97.8794 182.5399 0010132  32.0775 328.1057 14.87217493261292
UNISAT-6                
1 40012U 14033C   19078.57298585  .00000171  00000-0  32894-4 0  9991
2 40012  97.7715 309.0347 0059222  32.9675 327.5204 14.73938682255267
DUCHIFAT-1              
1 40021U 14033M   19078.24888331  .00000426  00000-0  49430-4 0  9996
2 40021  97.9225   2.5565 0012965 358.5980   1.5199 14.90549006257925
QB50P1                  
1 40025U 14033R   19078.43680339  .00000288  00000-0  36699-4 0  9998
2 40025  97.9066 358.2699 0012652   6.6935 353.4448 14.88884935257741
NUDT-PHONESAT           
1 40900U 15049B   19078.75790383  .00002319  00000-0  10322-3 0  9995
2 40900  97.4405  89.0010 0014265 137.4538 340.2752 15.22390795193820
ZDPS 2A                 
1 40901U 15049C   19078.82602145  .00000953  00000-0  50745-4 0  9998
2 40901  97.4616  85.9710 0014364 151.9280 331.6705 15.17556166193453
ZDPS 2B                 
1 40902U 15049D   19078.83818466  .00000707  00000-0  38735-4 0  9997
2 40902  97.4545  83.6021 0014536 149.7643 331.1705 15.17328749193431
XW-2A                   
1 40903U 15049E   19078.77877802  .00002452  00000-0  60373-4 0  9992
2 40903  97.3510 120.9854 0015617 111.3197 339.6887 15.41482812196247
KAITUO 1A               
1 40904U 15049F   19078.80935565  .00000687  00000-0  39959-4 0  9992
2 40904  97.4666  82.3846 0015225 156.3327 328.2035 15.15274733193239
2015-049G               
1 40905U 15049G   19078.75786175  .00000285  00000-0  19164-4 0  9998
2 40905  97.4690  80.0000 0016427 151.2149 324.1544 15.14205877193114
XW-2C                   
1 40906U 15049H   19078.74902693  .00000586  00000-0  34314-4 0  9991
2 40906  97.4670  82.3465 0015780 148.3626 266.0551 15.15545284193225
XW-2D                   
1 40907U 15049J   19078.88101948  .00000857  00000-0  48322-4 0  9996
2 40907  97.4647  82.1546 0015103 144.9893 331.5026 15.15725186193254
LILACSAT-2              
1 40908U 15049K   19078.77480876  .00000059  00000-0  68978-5 0  9999
2 40908  97.4774  81.0366 0016692 151.0997 331.8103 15.13722259193055
XW-2F                   
1 40910U 15049M   19078.72345066  .00001198  00000-0  63711-4 0  9992
2 40910  97.4626  83.8137 0015771 140.0924 307.0548 15.17091748193228
XW-2B                   
1 40911U 15049N   19078.84455765  .00000511  00000-0  30305-4 0  9995
2 40911  97.4677  82.7445 0015130 146.4048 335.3885 15.15656577193145
KAITUO 1B               
1 40912U 15049P   19078.83253747  .00001235  00000-0  61448-4 0  9997
2 40912  97.4515  87.3724 0016604 125.3219 357.1854 15.19376368193511
TIANWANG 1C (TW-1C)     
1 40926U 15051B   19078.90649395  .00013686  00000-0  21493-3 0  9999
2 40926  97.1492 125.2626 0008717   2.6659 122.8267 15.53725595196056
TIANWANG 1A (TW-1A)     
1 40928U 15051D   19078.74891771  .00004147  00000-0  10507-3 0  9996
2 40928  97.1571 112.0478 0013049  49.7686  42.1993 15.40191520195174
LAPAN-A2                
1 40931U 15052B   19077.15228864  .00000688  00000-0  67339-5 0  9995
2 40931   6.0004 356.4055 0013756 285.2634  74.5973 14.76600145187565
E-ST@R-II               
1 41459U 16025D   19078.73652412  .00001221  00000-0  67429-4 0  9990
2 41459  98.1054 160.6884 0166860 304.3443  54.2077 15.05161788158868
AAUSAT 4                
1 41460U 16025E   19078.68909805  .00002138  00000-0  11206-3 0  9996
2 41460  98.0981 161.6628 0158181 297.9260  60.6035 15.06912535158967
NUSAT-1 (FRESCO)        
1 41557U 16033B   19078.70061663  .00001406  00000-0  55869-4 0  9997
2 41557  97.4194 166.7453 0012368 257.7228 102.2626 15.26955532156209
BEESAT-4                
1 41619U 16040W   19078.64869934  .00001457  00000-0  65161-4 0  9996
2 41619  97.3784 142.5320 0010965 352.2449   7.8616 15.22857916140007
CAS-2T & KS-1Q          
1 41847U 16066G   19078.52686992  .00000100  00000-0  24937-4 0  9995
2 41847  98.7185 117.7456 0366723 145.9992 216.5292 14.37964546123890
NAYIF-1 (EO-88)         
1 42017U 17008BX  19078.64563229  .00001635  00000-0  67889-4 0  9999
2 42017  97.4128 146.6493 0007735 123.2754 236.9226 15.25236883116041
LILACSAT-1 (LO-90)      
1 42725U 98067ME  19078.84089892  .00626642  22258-3  58930-3 0  9999
2 42725  51.6211   8.4802 0001719 173.4443 224.7553 16.11443870104125
MAX VALIER SAT          
1 42778U 17036P   19078.46685697  .00001009  00000-0  47401-4 0  9991
2 42778  97.3660 138.0965 0012625 176.9321 183.1995 15.21823028 96360
RADFXSAT (FOX-1B)       
1 43017U 17073E   19078.50450436  .00000579  00000-0  50047-4 0  9996
2 43017  97.7221   3.4394 0260115  95.3001 267.7945 14.78419325 71788
FOX-1D (AO-92)          
1 43137U 18004AC  19078.12830875  .00001142  00000-0  51207-4 0  9997
2 43137  97.4972 146.1008 0008558 208.6107 151.4661 15.23257828 65556
ES'HAIL 2               
1 43700U 18090A   19078.57777992  .00000119  00000-0  00000-0 0  9991
2 43700   0.0123 213.1123 0001592 171.1687  26.3664  1.00271228  1138
FOX-1CLIFF (AO-95)      
1 43770U 18099N   19078.45927476  .00000197  00000-0  23496-4 0  9992
2 43770  97.7532 151.4615 0013199 278.4320  81.5404 14.94696633 15793
ITASAT 1                
1 43786U 18099AE  19078.49897631  .00000146  00000-0  18632-4 0  9992
2 43786  97.7549 151.5843 0013716 272.5989  87.3661 14.95080552 15802
JY1SAT (JO-97)          
1 43803U 18099AX  19078.55820254  .00000529  00000-0  53390-4 0  9991
2 43803  97.7507 151.5982 0013644 273.0910  86.8750 14.95197494 15807
